ONEWEB-0349             
1 49281U 21090C   25343.91153188 -.00000072  00000+0 -20996-3 0  9998
2 49281  87.9190 312.1887 0001814  81.3847 278.7491 13.20769473204843
ONEWEB-0353             
1 49282U 21090D   25343.90576847 -.00000095  00000+0 -29180-3 0  9998
2 49282  87.8990 327.4135 0002049  85.2028 274.9336 13.14504266202711
ONEWEB-0356             
1 49283U 21090E   25343.68268882  .00000085  00000+0  17679-3 0  9998
2 49283  87.9198 312.2267 0002216 107.5131 252.6244 13.20770675204810
ONEWEB-0358             
1 49284U 21090F   25344.16721831  .00000050  00000+0  92273-4 0  9997
2 49284  87.9200 312.1312 0001757  86.9921 273.1414 13.20769782205603
ONEWEB-0359             
1 49285U 21090G   25344.16406248  .00000089  00000+0  18817-3 0  9993
2 49285  87.9192 312.1315 0001382  85.3855 274.7436 13.20772303205581
ONEWEB-0360             
1 49286U 21090H   25343.85157738  .00000103  00000+0  22017-3 0  9990
2 49286  87.9190 312.2023 0001677  82.6809 277.4515 13.20773318204857
ONEWEB-0361             
1 49287U 21090J   25343.90838461 -.00000017  00000+0 -74917-4 0  9999
2 49287  87.9191 312.1866 0001819  89.1860 270.9481 13.20773088205316
ONEWEB-0362             
1 49288U 21090K   25343.71106676  .00000061  00000+0  11993-3 0  9996
2 49288  87.9190 342.6873 0001741  80.5663 279.5666 13.19724492201928
